CCSDS_OEM_VERS = 1.0
CREATION_DATE  = 2017-05-11T11:03:54
ORIGINATOR     = GMAT USER

META_START
OBJECT_NAME          = MOPSSat_alt_35785_km_RAAN_0_106
OBJECT_ID            = SatId
CENTER_NAME          = Earth
REF_FRAME            = EME2000
TIME_SYSTEM          = UTC
START_TIME           = 2017-01-01T00:00:00.000
USEABLE_START_TIME   = 2017-01-01T00:00:00.000
USEABLE_STOP_TIME    = 2017-01-02T00:00:00.000
STOP_TIME            = 2017-01-02T00:00:00.000
INTERPOLATION        = Lagrange
INTERPOLATION_DEGREE = 7 
META_STOP


                                                                                   

2017-01-01T07:38:20.000  -3.223200879340235e+04   3.409698051983313e+04   4.536352807209613e-01  -2.280711602673489e+00  -1.528225684768773e+00   5.307112047880608e-05
2017-01-01T07:38:30.000  -3.225480968989432e+04   3.408169168583694e+04   4.541661107963396e-01  -2.279467563617887e+00  -1.529540921427673e+00   5.309489054348384e-05
2017-01-01T07:38:40.000  -3.227759814362886e+04   3.406638970419433e+04   4.546971784879019e-01  -2.278223007867423e+00  -1.530855184757547e+00   5.311864269686096e-05
2017-01-01T07:38:50.000  -3.230037414920001e+04   3.405107458480147e+04   4.552284836107841e-01  -2.276977936088934e+00  -1.532168474939261e+00   5.314237692358018e-05
2017-01-01T07:39:00.000  -3.232313770127212e+04   3.403574633750930e+04   4.557600259814710e-01  -2.275732348945028e+00  -1.533480792157464e+00   5.316609320835710e-05
2017-01-01T07:39:10.000  -3.234588879446192e+04   3.402040497220335e+04   4.562918054150255e-01  -2.274486247100569e+00  -1.534792136593790e+00   5.318979153585990e-05
2017-01-01T07:39:20.000  -3.236862742386038e+04   3.400505049845209e+04   4.568238217372903e-01  -2.273239631194083e+00  -1.536102508456941e+00   5.321347189124581e-05
2017-01-01T07:39:30.000  -3.239135358450936e+04   3.398968292585934e+04   4.573560747726596e-01  -2.271992501866422e+00  -1.537411907952514e+00   5.323713425962292e-05
2017-01-01T07:39:40.000  -3.241406727153679e+04   3.397430226397356e+04   4.578885643472312e-01  -2.270744859753376e+00  -1.538720335290804e+00   5.326077862618868e-05
2017-01-01T07:39:50.000  -3.243676847979261e+04   3.395890852253182e+04   4.584212902803331e-01  -2.269496705505526e+00  -1.540027790665790e+00   5.328440497585723e-05
2017-01-01T07:40:00.000  -3.245945720414940e+04   3.394350171125872e+04   4.589542523915119e-01  -2.268248039771876e+00  -1.541334274272496e+00   5.330801329356596e-05
2017-01-01T07:40:10.000  -3.248213343943527e+04   3.392808183991113e+04   4.594874504989758e-01  -2.266998863203493e+00  -1.542639786303102e+00   5.333160356420797e-05
2017-01-01T07:40:20.000  -3.250479718045281e+04   3.391264891826691e+04   4.600208844200006e-01  -2.265749176452561e+00  -1.543944326948070e+00   5.335517577264525e-05
2017-01-01T07:40:30.000  -3.252744842200102e+04   3.389720295610873e+04   4.605545539714774e-01  -2.264498980171099e+00  -1.545247896397377e+00   5.337872990373807e-05
2017-01-01T07:40:40.000  -3.255008715888353e+04   3.388174396321864e+04   4.610884589701020e-01  -2.263248275010517e+00  -1.546550494840994e+00   5.340226594235116e-05
2017-01-01T07:40:50.000  -3.257271338598993e+04   3.386627194932315e+04   4.616225992342767e-01  -2.261997061617163e+00  -1.547852122473580e+00   5.342578387344528e-05
2017-01-01T07:41:00.000  -3.259532709824134e+04   3.385078692412960e+04   4.621569745828475e-01  -2.260745340635279e+00  -1.549152779491327e+00   5.344928368201350e-05
2017-01-01T07:41:10.000  -3.261792829059043e+04   3.383528889732628e+04   4.626915848351018e-01  -2.259493112707012e+00  -1.550452466091977e+00   5.347276535308381e-05
2017-01-01T07:41:20.000  -3.264051695807490e+04   3.381977787854490e+04   4.632264298120520e-01  -2.258240378469408e+00  -1.551751182477876e+00   5.349622887176777e-05
2017-01-01T07:41:30.000  -3.266309309573694e+04   3.380425387741654e+04   4.637615093345180e-01  -2.256987138558903e+00  -1.553048928851355e+00   5.351967422318352e-05
2017-01-01T07:41:40.000  -3.268565669861525e+04   3.378871690357714e+04   4.642968232229308e-01  -2.255733393611784e+00  -1.554345705414272e+00   5.354310139244538e-05
2017-01-01T07:41:50.000  -3.270820776172168e+04   3.377316696668238e+04   4.648323712968156e-01  -2.254479144265404e+00  -1.555641512366654e+00   5.356651036464549e-05
2017-01-01T07:42:00.000  -3.273074628002424e+04   3.375760407642089e+04   4.653681533743450e-01  -2.253224391159220e+00  -1.556936349905738e+00   5.358990112483031e-05
2017-01-01T07:42:10.000  -3.275327224851293e+04   3.374202824246823e+04   4.659041692739232e-01  -2.251969134931097e+00  -1.558230218229744e+00   5.361327365807088e-05
2017-01-01T07:42:20.000  -3.277578566190419e+04   3.372643947469332e+04   4.664404188070989e-01  -2.250713376233889e+00  -1.559523117520926e+00   5.363662794915102e-05
2017-01-01T07:42:30.000  -3.279828651499930e+04   3.371083778290849e+04   4.669769017871482e-01  -2.249457115715353e+00  -1.560815047966134e+00   5.365996398294436e-05
2017-01-01T07:42:40.000  -3.282077480255098e+04   3.369522317696228e+04   4.675136180258850e-01  -2.248200354025618e+00  -1.562106009749155e+00   5.368328174427406e-05
2017-01-01T07:42:50.000  -3.284325051978088e+04   3.367959566638046e+04   4.680505673460041e-01  -2.246943091788273e+00  -1.563396003080417e+00   5.370658121845372e-05
2017-01-01T07:43:00.000  -3.286571366186314e+04   3.366395526072398e+04   4.685877495687736e-01  -2.245685329629203e+00  -1.564685028167352e+00   5.372986239074807e-05
2017-01-01T07:43:10.000  -3.288816422404180e+04   3.364830196950809e+04   4.691251645168167e-01  -2.244427068170064e+00  -1.565973085221128e+00   5.375312524649568e-05
2017-01-01T07:43:20.000  -3.291060220133814e+04   3.363263580240332e+04   4.696628120071857e-01  -2.243168308044509e+00  -1.567260174439830e+00   5.377636977080270e-05
2017-01-01T07:43:30.000  -3.293302758876845e+04   3.361695676908678e+04   4.702006918564967e-01  -2.241909049886166e+00  -1.568546296020984e+00   5.379959594877138e-05
2017-01-01T07:43:40.000  -3.295544038134319e+04   3.360126487924145e+04   4.707388038809415e-01  -2.240649294328601e+00  -1.569831450161503e+00   5.382280376549859e-05
2017-01-01T07:43:50.000  -3.297784057385328e+04   3.358556014270874e+04   4.712771478910833e-01  -2.239389042017514e+00  -1.571115637045455e+00   5.384599320585596e-05
2017-01-01T07:44:00.000  -3.300022816115867e+04   3.356984256928366e+04   4.718157236988552e-01  -2.238128293594342e+00  -1.572398856860588e+00   5.386916425478742e-05
2017-01-01T07:44:10.000  -3.302260313807449e+04   3.355411216879538e+04   4.723545311148075e-01  -2.236867049702720e+00  -1.573681109791801e+00   5.389231689719112e-05
2017-01-01T07:44:20.000  -3.304496549987599e+04   3.353836895075211e+04   4.728935699602644e-01  -2.235605310960016e+00  -1.574962396050090e+00   5.391545111844333e-05
2017-01-01T07:44:30.000  -3.306731524179337e+04   3.352261292469615e+04   4.734328400551701e-01  -2.234343077985785e+00  -1.576242715843588e+00   5.393856690387390e-05
2017-01-01T07:44:40.000  -3.308965235912635e+04   3.350684410012372e+04   4.739723412208313e-01  -2.233080351395346e+00  -1.577522069384137e+00   5.396166423888600e-05
2017-01-01T07:44:50.000  -3.311197684695296e+04   3.349106248668746e+04   4.745120732729630e-01  -2.231817131816073e+00  -1.578800456870575e+00   5.398474310865043e-05
2017-01-01T07:45:00.000  -3.313428870034619e+04   3.347526809404670e+04   4.750520360268434e-01  -2.230553419875313e+00  -1.580077878501183e+00   5.400780349833473e-05
2017-01-01T07:45:10.000  -3.315658791437329e+04   3.345946093186663e+04   4.755922292973263e-01  -2.229289216200375e+00  -1.581354334473624e+00   5.403084539310017e-05
2017-01-01T07:45:20.000  -3.317887448388298e+04   3.344364100997207e+04   4.761326528936159e-01  -2.228024521430740e+00  -1.582629824972800e+00   5.405386877788871e-05
2017-01-01T07:45:30.000  -3.320114840379268e+04   3.342780833814114e+04   4.766733066262939e-01  -2.226759336201630e+00  -1.583904350187261e+00   5.407687363771298e-05
2017-01-01T07:45:40.000  -3.322340966897301e+04   3.341196292618779e+04   4.772141903045015e-01  -2.225493661150599e+00  -1.585177910302601e+00   5.409985995753937e-05
2017-01-01T07:45:50.000  -3.324565827475859e+04   3.339610478359833e+04   4.777553037483496e-01  -2.224227496888494e+00  -1.586450505530677e+00   5.412282772280870e-05
2017-01-01T07:46:00.000  -3.326789421643573e+04   3.338023391989584e+04   4.782966467764804e-01  -2.222960844028566e+00  -1.587722136080309e+00   5.414577691891410e-05
2017-01-01T07:46:10.000  -3.329011748937493e+04   3.336435034454605e+04   4.788382192092759e-01  -2.221693703178957e+00  -1.588992802164850e+00   5.416870753133515e-05
2017-01-01T07:46:20.000  -3.331232808867446e+04   3.334845406720971e+04   4.793800208602361e-01  -2.220426074962883e+00  -1.590262503981785e+00   5.419161954527652e-05
2017-01-01T07:46:30.000  -3.333452600945468e+04   3.333254509753463e+04   4.799220515430902e-01  -2.219157960001990e+00  -1.591531241729586e+00   5.421451294596526e-05
2017-01-01T07:46:40.000  -3.335671124679006e+04   3.331662344520359e+04   4.804643110701571e-01  -2.217889358920190e+00  -1.592799015603817e+00   5.423738771858322e-05
2017-01-01T07:46:50.000  -3.337888379573630e+04   3.330068911991645e+04   4.810067992529682e-01  -2.216620272342205e+00  -1.594065825798703e+00   5.426024384828850e-05
2017-01-01T07:47:00.000  -3.340104365134200e+04   3.328474213138066e+04   4.815495159025835e-01  -2.215350700892832e+00  -1.595331672507778e+00   5.428308132023400e-05
2017-01-01T07:47:10.000  -3.342319080867512e+04   3.326878248929199e+04   4.820924608302412e-01  -2.214080645195418e+00  -1.596596555925401e+00   5.430590011959221e-05
2017-01-01T07:47:20.000  -3.344532526283618e+04   3.325281020332652e+04   4.826356338476483e-01  -2.212810105871186e+00  -1.597860476247524e+00   5.432870023157570e-05
